ITASAT                  
1 43786U 18099AE  24002.14623377  .00004243  00000+0  32934-3 0  9992
2 43786  97.5385  64.2418 0018564 186.6891 173.4089 15.01743294277481
JY1SAT (JO-97)          
1 43803U 18099AX  24002.40862382  .00006517  00000+0  47652-3 0  9991
2 43803  97.5454  65.0285 0011509 145.5680 214.6294 15.03894293277609
UWE-4                   
1 43880U 18111E   24002.18763751  .00007629  00000+0  53165-3 0  9997
2 43880  97.6235 269.5387 0016202 212.4559 147.5673 15.05601150274275
JAISAT-1                
1 44419U 19038F   24002.46741223  .00054523  00000+0  11140-2 0  9997
2 44419  97.6848 358.0048 0008490 324.0867  35.9809 15.45946819249141
DUCHIFAT-3              
1 44854U 19089C   24002.27033986  .00011688  00000+0  69366-3 0  9994
2 44854  36.9616 337.7057 0008136 178.8315 181.2450 15.10759489222973
TIANYAN 01              
1 44881U 19093C   24002.56729450  .00001169  00000+0  14966-3 0  9998
2 44881  97.8460  82.5229 0015375 143.2890 216.9380 14.83131260218343
RS-44 & BREEZE-KM R/B   
1 44909U 19096E   24002.58621537  .00000011  00000+0 -67867-5 0  9997
2 44909  82.5201 215.4470 0218389  80.8178 281.7555 12.79725035187664
BY70-2                  
1 45857U 20042B   24002.57411189  .00032293  00000+0  24016-2 0  9994
2 45857  97.9239  89.6432 0006864  56.1268 304.0609 15.02882787189349
SALSAT                  
1 46495U 20068K   24002.39816607  .00005500  00000+0  33910-3 0  9990
2 46495  97.7967 318.1209 0015231 155.5362 204.6593 15.10281180179113
RADFXSAT-2 (AO-109)     
1 47311U 21002C   24002.36450987  .00074465  00000+0  96234-3 0  9993
2 47311  60.6752   3.9106 0028605  52.7949 307.5758 15.57964674165090
UVSQ-SAT                
1 47438U 21006AB  24002.13899327  .00024851  00000+0  77139-3 0  9994
2 47438  97.3558  62.1902 0009447  95.3224 264.9097 15.33328467163036
LEDSAT                  
1 49069U 21073D   24002.48265666  .00013190  00000+0  63035-3 0  9995
2 49069  97.4602  75.3438 0022425 145.7116 214.5572 15.18917098131109
XW-3 (CAS-9)            
1 50466U 21131B   24002.57799297  .00000670  00000+0  23002-3 0  9994
2 50466  98.5402  88.4233 0003182 260.1966  99.8862 14.39276059106031
TEVEL-3                 
1 50988U 22002E   24002.47081021  .00039804  00000+0  10761-2 0  9997
2 50988  97.4075  74.3465 0004832 244.7493 115.3251 15.37605547109240
TEVEL-8                 
1 50989U 22002F   24002.56456459  .00035152  00000+0  95390-3 0  9993
2 50989  97.4091  74.5213 0004757 242.6073 117.4688 15.37517311109258
TEVEL-5                 
1 50998U 22002Q   24002.40344798  .00042569  00000+0  10937-2 0  9991
2 50998  97.4069  74.9811 0005661 236.6103 123.4602 15.39157670109289
TEVEL-6                 
1 50999U 22002R   24002.46798204  .00041673  00000+0  10715-2 0  9992
2 50999  97.4067  75.0342 0005657 235.8676 124.2034 15.39138958109297
TEVEL-1                 
1 51013U 22002AF  24002.55344829  .00035312  00000+0  95781-3 0  9990
2 51013  97.4067  74.3335 0004649 243.4568 116.6200 15.37530774109250
TEVEL-7                 
1 51062U 22002CG  24002.56142952  .00035183  00000+0  95309-3 0  9990
2 51062  97.4086  74.4882 0004793 242.6232 117.4525 15.37570498109258
TEVEL-4                 
1 51063U 22002CH  24002.57823667  .00033250  00000+0  90489-3 0  9998
2 51063  97.4086  74.4584 0004694 242.0223 118.0547 15.37439688109258
TEVEL-2                 
1 51069U 22002CP  24002.47132985  .00039916  00000+0  10785-2 0  9994
2 51069  97.4072  74.3143 0004802 244.4825 115.5923 15.37623277109242
GREENCUBE               
1 53106U 22080B   23353.26709400 -.00000003  00000+0  00000+0 0  9993
2 53106  70.1425 255.3862 0008213 145.5074 214.6119  6.42557317 33647
CYCLOPS (RS29S)         
1 53373U 22096D   24002.60226026  .00121249  00000+0  11572-2 0  9998
2 53373  97.3968 279.0409 0004489  91.2971 268.8803 15.66361310 78563
MONITOR-1 (RS32S)       
1 53374U 22096E   24002.54859960  .00098955  00000+0  11019-2 0  9994
2 53374  97.3913 278.1981 0004618  98.5565 261.6217 15.62512598 78519
KUZBASS-300 (RS34S)     
1 53375U 22096F   24002.55809637  .00050689  00000+0  82264-3 0  9995
2 53375  97.3992 276.6721 0004049  96.1242 264.0472 15.52580083 78407
UTMN (RS23S)            
1 53376U 22096G   24002.57387364  .00055590  00000+0  83423-3 0  9990
2 53376  97.3975 277.0803 0003442  94.9498 265.2149 15.54729712 78433
MIET-AIS (RS28S)        
1 53377U 22096H   24002.57626368  .00044465  00000+0  77710-3 0  9992
2 53377  97.4011 276.3802 0003427  91.4718 268.6926 15.50528003 78387
KAI-1 (RS26S)           
1 53378U 22096J   24002.59919810  .00033728  00000+0  67980-3 0  9990
2 53378  97.4043 275.4991 0003095  94.2105 265.9498 15.46484669 78326
ISOI (RS19S)            
1 53381U 22096M   24002.58666440  .00045895  00000+0  76535-3 0  9995
2 53381  97.4024 276.9402 0004657  73.8086 286.3679 15.51839034 78423
CUBESX-HSE-2 (RS21S)    
1 53383U 22096P   24002.59984783  .00055924  00000+0  84742-3 0  9994
2 53383  97.3980 277.3714 0005593  71.4816 288.7045 15.54450715 78455
SIREN (RS30S)           
1 53384U 22096Q   24002.60166284  .00039521  00000+0  72646-3 0  9990
2 53384  97.4018 276.3635 0004911  72.4644 287.7143 15.49108314 78382
GEOSCAN-EDELVEIS (RS20S)
1 53385U 22096R   24002.45277968  .00170792  00000+0  13029-2 0  9991
2 53385  97.3945 280.1022 0006066  73.8601 286.3329 15.71679105 78652
CAS-5A (FO-118)         
1 54684U 22167C   24002.54332230  .00016080  00000+0  73124-3 0  9999
2 54684  97.5838 144.9786 0012091   9.8800 350.2670 15.20753560 58905
STRATOSAT-TK 1 (RS52S)  
1 57167U 23091B   24002.57492130  .00009327  00000+0  62279-3 0  9999
2 57167  97.6379  56.5827 0016290 332.9638  27.0740 15.07124902 28421
UMKA 1 (RS40S)          
1 57172U 23091G   24002.62728689  .00004204  00000+0  29758-3 0  9996
2 57172  97.6392  56.4247 0016682 334.4170 178.2641 15.05275760 28415
CUBESX-HSE 3 (RS42S)    
1 57178U 23091N   24002.58601633  .00005245  00000+0  36537-3 0  9995
2 57178  97.6419  56.5058 0017465 327.8964  32.1198 15.05750699 28413
MONITOR-4 (RS57S)       
1 57182U 23091S   24002.60202410  .00005500  00000+0  38523-3 0  9994
2 57182  97.6416  56.4566 0017620 329.4289  30.5909 15.05520522 28411
MONITOR-2 (RS39S)       
1 57184U 23091U   24002.59404449  .00003441  00000+0  24183-3 0  9999
2 57184  97.6420  56.6312 0013630 324.0656  35.9653 15.05709193 28424
SVYATOBOR 1 (RS60S)     
1 57187U 23091X   24002.60658282  .00005196  00000+0  35562-3 0  9992
2 57187  97.6424  56.7706 0013268 321.7124  38.3160 15.06463275 28430
VIZARD-METEO (RS38S)    
1 57189U 23091Z   24002.61046085  .00006530  00000+0  43694-3 0  9995
2 57189  97.6416  56.9006 0012278 319.8355  40.1964 15.07219875 28442
NANOZOND 1 (RS49S)      
1 57190U 23091AA  24002.60538932  .00008771  00000+0  56814-3 0  9990
2 57190  97.6391  56.9951 0010978 326.7617  33.2921 15.08328785 28457
POLYTECH-UNIVERSE 3 (R*)
1 57191U 23091AB  24002.58582419  .00003105  00000+0  21917-3 0  9999
2 57191  97.6381  56.4099 0019758 339.7059  20.3380 15.05544253 28413
UTMN 2 (RS27S)          
1 57203U 23091AP  24002.56229982  .00006625  00000+0  44617-3 0  9996
2 57203  97.6409  56.8093 0012829 319.0851  40.9412 15.06968454 28439
ARCCUBE 1 (RS25S)       
1 57205U 23091AR  24002.59189477  .00009316  00000+0  59741-3 0  9999
2 57205  97.6366  56.9701 0011331 328.1813  31.8729 15.08676219 28455
KUZGTU 1 (RS47S)        
1 57217U 23091AV  24002.58484730  .00005045  00000+0  35201-3 0  9991
2 57217  97.6394  56.4470 0017411 329.2524  30.7681 15.05706288 28411
HADES-D (SO-121)        
1 58567U 23174CY  24002.55677015  .00022448  00000+0  11808-2 0  9991
2 58567  97.4770  79.6304 0016038  92.4893 267.8175 15.15550792  8441
